NORAD_CAT_ID,OBJECT_NAME,OBJECT_TYPE,EPOCH,MEAN_MOTION,ECCENTRICITY,INCLINATION,RA_OF_ASC_NODE,ARG_OF_PERICENTER,MEAN_ANOMALY,BSTAR,MEAN_MOTION_DOT,MEAN_MOTION_DDOT,TLE_LINE0,TLE_LINE1,TLE_LINE2,SEMIMAJOR_AXIS,PERIOD,APOGEE,PERIGEE,DECAYED
53157.0,STARLINK-4093,PAYLOAD,2023-02-11 17:48:05,15.08847988,0.0001407,53.2172,160.739,129.5159,230.5958,0.0004531,6.932e-05,0.0,0 STARLINK-4093,1 53157U 22083AB  23042.74173055  .00006932  00000-0  45310-3 0  9995,2 53157  53.2172 160.7390 0001407 129.5159 230.5958 15.08847988 32615,6917.856,95.437,540.694,538.748,0.0
53157.0,STARLINK-4093,PAYLOAD,2023-02-12 08:06:34,15.08833132,0.0001355,53.217,158.0675,93.5638,266.5509,5.1137e-05,5.26e-06,0.0,0 STARLINK-4093,1 53157U 22083AB  23043.33789876  .00000526  00000-0  51137-4 0  9993,2 53157  53.2170 158.0675 0001355  93.5638 266.5509 15.08833132 32700,6917.901,95.438,540.704,538.829,0.0
53157.0,STARLINK-4093,PAYLOAD,2023-02-12 14:28:06,15.08850747,7.12e-05,53.2172,156.8769,86.9628,273.1445,0.00069824,0.00010845,0.0,0 STARLINK-4093,1 53157U 22083AB  23043.60285602  .00010845  00000-0  69824-3 0  9997,2 53157  53.2172 156.8769 0000712  86.9628 273.1445 15.08850747 32112,6917.848,95.437,540.205,539.22,0.0
53157.0,STARLINK-4093,PAYLOAD,2023-02-12 17:38:52,15.08853427,0.0001285,53.2172,156.2822,92.0008,268.1132,0.00077036,0.00011998,0.0,0 STARLINK-4093,1 53157U 22083AB  23043.73533440  .00011998  00000-0  77036-3 0  9991,2 53157  53.2172 156.2822 0001285  92.0008 268.1132 15.08853427 32768,6917.839,95.437,540.593,538.815,0.0
53157.0,STARLINK-4093,PAYLOAD,2023-02-13 00:00:25,15.08846033,0.0001483,53.2175,155.092,93.7257,266.3905,0.00055621,8.577e-05,0.0,0 STARLINK-4093,1 53157U 22083AB  23044.00029388  .00008577  00000-0  55621-3 0  9998,2 53157  53.2175 155.0920 0001483  93.7257 266.3905 15.08846033 32809,6917.862,95.437,540.753,538.701,0.0
53157.0,STARLINK-4093,PAYLOAD,2023-02-13 14:18:53,15.08852878,0.0001915,53.2166,152.4172,84.3806,275.7404,0.00033259,5.011e-05,0.0,0 STARLINK-4093,1 53157U 22083AB  23044.59645198  .00005011  00000-0  33259-3 0  9998,2 53157  53.2166 152.4172 0001915  84.3806 275.7404 15.08852878 32267,6917.841,95.437,541.031,538.381,0.0
53157.0,STARLINK-4093,PAYLOAD,2023-02-13 23:51:12,15.08843424,0.0001045,53.2165,150.6366,91.5638,268.5474,0.00018125,2.598e-05,0.0,0 STARLINK-4093,1 53157U 22083AB  23044.99389346  .00002598  00000-0  18125-3 0  9994,2 53157  53.2165 150.6366 0001045  91.5638 268.5474 15.08843424 32958,6917.87,95.437,540.458,539.012,0.0
53157.0,STARLINK-4093,PAYLOAD,2023-02-14 07:48:08,15.08837174,0.0001562,53.2182,149.1468,94.0642,266.0529,-6.1196e-05,-1.262e-05,0.0,0 STARLINK-4093,1 53157U 22083AB  23045.32509832 -.00001262  00000-0 -61196-4 0  9992,2 53157  53.2182 149.1468 0001562  94.0642 266.0529 15.08837174 33006,6917.889,95.438,540.835,538.673,0.0
53157.0,STARLINK-4093,PAYLOAD,2023-02-15 10:49:41,15.08844724,0.0001475,53.2183,144.0926,97.2319,262.8841,0.00019384,2.799e-05,0.0,0 STARLINK-4093,1 53157U 22083AB  23046.45117599  .00002799  00000-0  19384-3 0  9997,2 53157  53.2183 144.0926 0001475  97.2319 262.8841 15.08844724 33177,6917.866,95.437,540.751,538.711,0.0
53157.0,STARLINK-4093,PAYLOAD,2023-02-15 12:25:04,15.08849043,0.0001584,53.218,143.7945,96.6076,263.5096,0.00025056,3.703e-05,0.0,0 STARLINK-4093,1 53157U 22083AB  23046.51741395  .00003703  00000-0  25056-3 0  9990,2 53157  53.2180 143.7945 0001584  96.6076 263.5096 15.08849043 32555,6917.853,95.437,540.814,538.622,0.0
53157.0,STARLINK-4093,PAYLOAD,2023-02-15 15:35:49,15.08868305,0.0001099,53.2169,143.1989,104.5922,255.5192,0.00057164,8.828e-05,0.0,0 STARLINK-4093,1 53157U 22083AB  23046.64988376  .00008828  00000-0  57164-3 0  9994,2 53157  53.2169 143.1989 0001099 104.5922 255.5192 15.08868305 33207,6917.794,95.436,540.419,538.899,0.0
53157.0,STARLINK-4093,PAYLOAD,2023-02-16 01:08:09,15.08860693,0.0001328,53.2171,141.413,142.9232,217.1852,-0.00021853,-3.766e-05,0.0,0 STARLINK-4093,1 53157U 22083AB  23047.04732903 -.00003766  00000-0 -21853-3 0  9996,2 53157  53.2171 141.4130 0001328 142.9232 217.1852 15.08860693 33269,6917.817,95.436,540.601,538.763,0.0
53157.0,STARLINK-4093,PAYLOAD,2023-02-16 12:15:50,15.08873476,0.0001264,53.2179,139.3292,105.0315,255.0817,0.00047089,7.221e-05,0.0,0 STARLINK-4093,1 53157U 22083AB  23047.51099975  .00007221  00000-0  47089-3 0  9990,2 53157  53.2179 139.3292 0001264 105.0315 255.0817 15.08873476 33336,6917.778,95.435,540.517,538.769,0.0
53157.0,STARLINK-4093,PAYLOAD,2023-02-16 13:51:13,15.08878462,0.0001022,53.2168,139.036,109.0499,251.0604,0.00047414,7.274e-05,0.0,0 STARLINK-4093,1 53157U 22083AB  23047.57723709  .00007274  00000-0  47414-3 0  9995,2 53157  53.2168 139.0360 0001022 109.0499 251.0604 15.08878462 32717,6917.763,95.435,540.335,538.921,0.0
53157.0,STARLINK-4093,PAYLOAD,2023-02-16 15:26:36,15.08881225,0.0001101,53.2164,138.7377,107.9295,252.1817,0.0004727,7.252e-05,0.0,0 STARLINK-4093,1 53157U 22083AB  23047.64347384  .00007252  00000-0  47270-3 0  9990,2 53157  53.2164 138.7377 0001101 107.9295 252.1817 15.08881225 32726,6917.754,95.435,540.381,538.858,0.0
53157.0,STARLINK-4093,PAYLOAD,2023-02-17 12:06:38,15.08832476,0.0001112,53.2167,134.8731,118.7407,241.3697,-0.00021363,-3.685e-05,0.0,0 STARLINK-4093,1 53157U 22083AB  23048.50460946 -.00003685  00000-0 -21363-3 0  9999,2 53157  53.2167 134.8731 0001112 118.7407 241.3697 15.08832476 33481,6917.903,95.438,540.538,538.999,0.0
53157.0,STARLINK-4093,PAYLOAD,2023-02-17 15:17:24,15.08834423,0.0001173,53.2166,134.2778,117.9373,242.1738,-7.5491e-05,-1.489e-05,0.0,0 STARLINK-4093,1 53157U 22083AB  23048.63709081 -.00001489  00000-0 -75491-4 0  9991,2 53157  53.2166 134.2778 0001173 117.9373 242.1738 15.08834423 32876,6917.897,95.438,540.574,538.951,0.0
53157.0,STARLINK-4093,PAYLOAD,2023-02-18 00:49:44,15.08816034,0.0001331,53.217,132.4933,127.5981,232.5132,-0.00021711,-3.739e-05,0.0,0 STARLINK-4093,1 53157U 22083AB  23049.03453982 -.00003739  00000-0 -21711-3 0  9997,2 53157  53.2170 132.4933 0001331 127.5981 232.5132 15.08816034 33568,6917.954,95.439,540.739,538.898,0.0
53157.0,STARLINK-4093,PAYLOAD,2023-02-18 11:57:27,15.08816861,6.87e-05,53.2182,130.4156,85.7661,274.341,-2.8853e-05,-7.46e-06,0.0,0 STARLINK-4093,1 53157U 22083AB  23049.49823063 -.00000746  00000-0 -28853-4 0  9998,2 53157  53.2182 130.4156 0000687  85.7661 274.3410 15.08816861 33009,6917.951,95.439,540.291,539.341,0.0
53157.0,STARLINK-4093,PAYLOAD,2023-02-19 11:48:14,15.08858144,9.77e-05,53.2174,125.9549,90.8599,269.2505,0.0011295,0.00017743,0.0,0 STARLINK-4093,1 53157U 22083AB  23050.49183049  .00017743  00000-0  11295-2 0  9996,2 53157  53.2174 125.9549 0000977  90.8599 269.2505 15.08858144 33787,6917.825,95.436,540.366,539.014,0.0
53157.0,STARLINK-4093,PAYLOAD,2023-02-19 13:23:37,15.08865446,0.0001088,53.2173,125.6573,90.5514,269.5603,0.001251,0.00019692,0.0,0 STARLINK-4093,1 53157U 22083AB  23050.55806901  .00019692  00000-0  12510-2 0  9998,2 53157  53.2173 125.6573 0001088  90.5514 269.5603 15.08865446 33165,6917.803,95.436,540.42,538.915,0.0
53157.0,STARLINK-4093,PAYLOAD,2023-02-20 05:17:27,15.08870383,0.0001694,53.2175,122.6841,99.0355,261.0829,0.00073829,0.00011491,0.0,0 STARLINK-4093,1 53157U 22083AB  23051.22046180  .00011491  00000-0  73829-3 0  9998,2 53157  53.2175 122.6841 0001694  99.0355 261.0829 15.08870383 33895,6917.788,95.436,540.824,538.481,0.0
53157.0,STARLINK-4093,PAYLOAD,2023-02-20 13:14:23,15.08866881,0.0001494,53.2174,121.1982,90.6947,269.4216,0.0011603,0.0001824,0.0,0 STARLINK-4093,1 53157U 22083AB  23051.55165864  .00018240  00000-0  11603-2 0  9995,2 53157  53.2174 121.1982 0001494  90.6947 269.4216 15.08866881 33313,6917.798,95.436,540.697,538.63,0.0
53157.0,STARLINK-4093,PAYLOAD,2023-02-20 21:11:19,15.08841248,0.0001142,53.2163,119.7095,101.7843,258.3277,-2.2318e-05,-6.43e-06,0.0,0 STARLINK-4093,1 53157U 22083AB  23051.88286015 -.00000643  00000-0 -22318-4 0  9990,2 53157  53.2163 119.7095 0001142 101.7843 258.3277 15.08841248 33996,6917.877,95.437,540.532,538.952,0.0
53157.0,STARLINK-4093,PAYLOAD,2023-02-21 11:29:47,15.08846446,0.0001299,53.2158,117.0323,93.1662,266.9478,0.00042133,6.425e-05,0.0,0 STARLINK-4093,1 53157U 22083AB  23052.47901964  .00006425  00000-0  42133-3 0  9991,2 53157  53.2158 117.0323 0001299  93.1662 266.9478 15.08846446 33455,6917.861,95.437,540.624,538.827,0.0
53157.0,STARLINK-4093,PAYLOAD,2023-02-21 14:40:33,15.08857637,0.0001337,53.2161,116.437,93.9934,266.1211,0.00090395,0.00014135,0.0,0 STARLINK-4093,1 53157U 22083AB  23052.61149771  .00014135  00000-0  90395-3 0  9997,2 53157  53.2161 116.4370 0001337  93.9934 266.1211 15.08857637 34101,6917.826,95.436,540.616,538.767,0.0
53157.0,STARLINK-4093,PAYLOAD,2023-02-22 03:23:38,15.0885045,0.000179,53.2169,114.0617,87.984,272.1357,0.00075088,0.00011686,0.0,0 STARLINK-4093,1 53157U 22083AB  23053.14142064  .00011686  00000-0  75088-3 0  9994,2 53157  53.2169 114.0617 0001790  87.9840 272.1357 15.08850450 34181,6917.848,95.437,540.952,538.475,0.0
53157.0,STARLINK-4093,PAYLOAD,2023-02-22 11:20:34,15.08851992,0.0001401,53.2157,112.572,104.0163,256.0985,0.00056726,8.754e-05,0.0,0 STARLINK-4093,1 53157U 22083AB  23053.47261848  .00008754  00000-0  56726-3 0  9992,2 53157  53.2157 112.5720 0001401 104.0163 256.0985 15.08851992 33600,6917.844,95.437,540.678,538.74,0.0
53157.0,STARLINK-4093,PAYLOAD,2023-02-22 20:52:53,15.08830481,0.0001274,53.2153,110.7879,99.071,261.0426,-0.00025987,-4.42e-05,0.0,0 STARLINK-4093,1 53157U 22083AB  23053.87006179 -.00004420  00000-0 -25987-3 0  9993,2 53157  53.2153 110.7879 0001274  99.0710 261.0426 15.08830481 33662,6917.909,95.438,540.656,538.893,0.0
53157.0,STARLINK-4093,PAYLOAD,2023-02-23 08:00:35,15.08838344,0.0001126,53.2158,108.7065,103.4669,256.6449,0.00073047,0.00011356,0.0,0 STARLINK-4093,1 53157U 22083AB  23054.33374406  .00011356  00000-0  73047-3 0  9990,2 53157  53.2158 108.7065 0001126 103.4669 256.6449 15.08838344 34369,6917.885,95.438,540.529,538.971,0.0
